OBJECT_NAME,OBJECT_ID,EPOCH,MEAN_MOTION,ECCENTRICITY,INCLINATION,RA_OF_ASC_NODE,ARG_OF_PERICENTER,MEAN_ANOMALY,EPHEMERIS_TYPE,CLASSIFICATION_TYPE,NORAD_CAT_ID,ELEMENT_SET_NO,REV_AT_EPOCH,BSTAR,MEAN_MOTION_DOT,MEAN_MOTION_DDOT
STARLINK-32717,2025-003E,2026-06-10T14:33:59.064768,15.27596307,.00020902,43.0018,124.0952,269.8002,90.2610,0,U,62491,999,8088,.86367122E-3,.23593E-3,0
STARLINK-32757,2025-003F,2026-06-10T04:11:53.861280,15.27590321,.00011385,43.0018,126.8620,264.1595,95.9127,0,U,62492,999,8069,.56425574E-3,.15302E-3,0
STARLINK-32731,2025-003G,2026-06-10T04:30:24.276672,15.27594437,.00005025,42.9996,126.9599,284.2066,75.8730,0,U,62493,999,8081,.57662005E-3,.15646E-3,0
STARLINK-32694,2025-003H,2026-06-10T14:19:10.928928,15.27598336,.00020354,42.9956,124.0077,270.0806,89.9812,0,U,62494,999,8088,.80466264E-3,.21959E-3,0
STARLINK-32708,2025-003J,2026-06-10T04:06:20.814336,15.27620697,.00010016,43.0015,126.8340,245.6580,114.4167,0,U,62495,999,8069,.57169948E-3,.15522E-3,0
STARLINK-32718,2025-003K,2026-06-10T14:13:38.353728,15.27589287,.00018904,42.9947,123.9787,274.1469,85.9167,0,U,62496,999,8076,.84238688E-3,.22998E-3,0
STARLINK-32729,2025-003L,2026-06-10T14:24:43.961184,15.27592686,.00016282,43.0014,124.0356,269.0218,91.0447,0,U,62497,999,8088,.5161582E-3,.13974E-3,0
STARLINK-32739,2025-003M,2026-06-10T14:46:56.575776,15.27584377,.00015455,43.0029,124.1558,282.0289,78.0390,0,U,62498,999,8083,.51844746E-3,.14033E-3,0
STARLINK-32714,2025-003N,2026-06-10T04:28:33.295008,15.27607488,.00038348,42.9983,126.9514,282.8140,77.2283,0,U,62499,999,8081,.10323849E-2,.28284E-3,0
STARLINK-32685,2025-003P,2026-06-10T04:17:27.267648,15.27594735,.00015201,43.0024,126.8922,269.9084,90.1594,0,U,62500,999,8076,.79359977E-3,.2165E-3,0
STARLINK-32691,2025-003Q,2026-06-10T14:45:04.967712,15.27595241,.00026026,43.0069,124.1414,267.7117,92.3437,0,U,62501,999,8087,.752003E-3,.20499E-3,0
STARLINK-32788,2025-003R,2026-06-10T14:39:31.233024,15.27593284,.00039158,43.0014,124.1169,264.4167,95.6238,0,U,62502,999,8076,.64816914E-3,.17626E-3,0
STARLINK-32768,2025-003S,2026-06-10T04:50:31.925760,15.27578103,.0000862,42.9996,126.1977,255.6455,104.4301,0,U,62503,999,8070,.20446E-3,.5368E-4,0
STARLINK-32792,2025-003T,2026-06-10T04:37:35.671008,15.27599423,.0000847,43.0008,126.1307,276.7990,83.2765,0,U,62504,999,8070,.61738E-3,.16776E-3,0
STARLINK-32725,2025-003U,2026-06-10T14:04:23.333088,15.27591642,.00006093,43.0089,123.9144,185.4229,174.6616,0,U,62505,999,8076,.54549068E-3,.14784E-3,0
STARLINK-32681,2025-003V,2026-06-10T03:54:42.951168,15.27596169,.00006929,43.0008,108.1809,264.1490,95.9283,0,U,62506,999,8102,.61156336E-3,.16613E-3,0
STARLINK-32679,2025-003W,2026-06-10T13:59:01.571712,15.27601531,.00022774,42.9944,124.7199,277.5733,82.4860,0,U,62507,999,8087,.81891441E-3,.22357E-3,0
STARLINK-32749,2025-003X,2026-06-10T14:00:01.999872,15.27576858,.00012833,43.0010,124.1842,269.0039,335.2921,0,U,62508,999,591,-.87643151E-3,-.24298E-3,0
STARLINK-32744,2025-003Y,2026-06-10T04:23:00.235968,15.27592570,.00001753,43.0011,126.9251,224.9971,135.0866,0,U,62509,999,8069,.74747728E-3,.20372E-3,0
STARLINK-32701,2025-003Z,2026-06-10T14:50:38.507136,15.27589725,.00018121,42.9985,124.1724,266.2831,93.7813,0,U,62510,999,8076,.65408315E-3,.17786E-3,0
STARLINK-11452 [DTC],2025-004A,2026-06-10T14:00:01.999872,15.70842454,.00014265,43.0005,230.7724,284.3685,254.8342,0,U,62511,999,604,-.39749048E-3,-.51144E-3,0
STARLINK-11443 [DTC],2025-004B,2026-06-09T05:57:35.509824,15.70878039,.0002187,43.0002,239.2686,299.4872,60.5777,0,U,62512,999,8160,.12143E-2,.158628E-2,0
STARLINK-11440 [DTC],2025-004C,2026-06-09T22:21:49.086432,15.70888859,.00017538,43.0014,234.9218,293.4959,66.5724,0,U,62513,999,8171,.12665749E-2,.16569E-2,0
STARLINK-11514 [DTC],2025-004D,2026-06-10T11:36:34.847424,15.70881171,.0001152,42.9990,231.3053,245.3626,114.7122,0,U,62514,999,8180,.11172827E-2,.145704E-2,0
STARLINK-11508 [DTC],2025-004E,2026-06-09T21:43:35.614848,15.70915073,.00013675,43.0005,234.7068,284.4345,75.6371,0,U,62515,999,8171,.13789158E-2,.180959E-2,0
STARLINK-11510 [DTC],2025-004F,2026-06-09T11:48:32.485824,15.70841428,.00014799,43.0005,237.6443,255.5410,104.5294,0,U,62516,999,8164,.18972184E-2,.250484E-2,0
STARLINK-11512 [DTC],2025-004G,2026-06-10T11:04:41.427840,15.71031120,.00035528,43.0000,231.1266,305.0762,54.9772,0,U,62517,999,8180,.15618592E-2,.206708E-2,0
STARLINK-11450 [DTC],2025-004H,2026-06-10T11:50:33.284256,15.70875969,.00010555,42.9996,231.3822,224.9671,135.1112,0,U,62518,999,8180,.61228663E-3,.78984E-3,0
STARLINK-11507 [DTC],2025-004J,2026-06-10T11:58:12.164160,15.70851544,.00007261,42.9996,231.4240,262.0897,97.9888,0,U,62519,999,8180,.16106447E-2,.211671E-2,0
STARLINK-11482 [DTC],2025-004K,2026-06-10T11:12:19.125792,15.70778073,.00018335,43.0016,231.1710,258.9258,101.1403,0,U,62520,999,8180,.11927256E-2,.155079E-2,0
