STARLINK-32717          
1 62491U 25003E   26161.60693362  .00023593  00000+0  86367-3 0  9997
2 62491  43.0018 124.0952 0002090 269.8002  90.2610 15.27596307 80888
STARLINK-32757          
1 62492U 25003F   26161.17492895  .00015302  00000+0  56426-3 0  9990
2 62492  43.0018 126.8620 0001138 264.1595  95.9127 15.27590321 80692
STARLINK-32731          
1 62493U 25003G   26161.18778098  .00015646  00000+0  57662-3 0  9998
2 62493  42.9996 126.9599 0000502 284.2066  75.8730 15.27594437 80815
STARLINK-32694          
1 62494U 25003H   26161.59665427  .00021959  00000+0  80466-3 0  9997
2 62494  42.9956 124.0077 0002035 270.0806  89.9812 15.27598336 80886
STARLINK-32708          
1 62495U 25003J   26161.17107424  .00015522  00000+0  57170-3 0  9995
2 62495  43.0015 126.8340 0001001 245.6580 114.4167 15.27620697 80699
STARLINK-32718          
1 62496U 25003K   26161.59280502  .00022998  00000+0  84239-3 0  9992
2 62496  42.9947 123.9787 0001890 274.1469  85.9167 15.27589287 80763
STARLINK-32729          
1 62497U 25003L   26161.60050881  .00013974  00000+0  51616-3 0  9997
2 62497  43.0014 124.0356 0001628 269.0218  91.0447 15.27592686 80888
STARLINK-32739          
1 62498U 25003M   26161.61593259  .00014033  00000+0  51845-3 0  9991
2 62498  43.0029 124.1558 0001545 282.0289  78.0390 15.27584377 80836
STARLINK-32714          
1 62499U 25003N   26161.18649647  .00028284  00000+0  10324-2 0  9996
2 62499  42.9983 126.9514 0003834 282.8140  77.2283 15.27607488 80812
STARLINK-32685          
1 62500U 25003P   26161.17878782  .00021650  00000+0  79360-3 0  9998
2 62500  43.0024 126.8922 0001520 269.9084  90.1594 15.27594735 80761
STARLINK-32691          
1 62501U 25003Q   26161.61464083  .00020499  00000+0  75200-3 0  9992
2 62501  43.0069 124.1414 0002602 267.7117  92.3437 15.27595241 80878
STARLINK-32788          
1 62502U 25003R   26161.61077816  .00017626  00000+0  64817-3 0  9997
2 62502  43.0014 124.1169 0003915 264.4167  95.6238 15.27593284 80761
STARLINK-32768          
1 62503U 25003S   26161.20175840  .00005368  00000+0  20446-3 0  9999
2 62503  42.9996 126.1977 0000862 255.6455 104.4301 15.27578103 80705
STARLINK-32792          
1 62504U 25003T   26161.19277397  .00016776  00000+0  61738-3 0  9992
2 62504  43.0008 126.1307 0000847 276.7990  83.2765 15.27599423 80706
STARLINK-32725          
1 62505U 25003U   26161.58638117  .00014784  00000+0  54549-3 0  9996
2 62505  43.0089 123.9144 0000609 185.4229 174.6616 15.27591642 80768
STARLINK-32681          
1 62506U 25003V   26161.16299712  .00016613  00000+0  61156-3 0  9990
2 62506  43.0008 108.1809 0000692 264.1490  95.9283 15.27596169 81024
STARLINK-32679          
1 62507U 25003W   26161.58265708  .00022357  00000+0  81891-3 0  9995
2 62507  42.9944 124.7199 0002277 277.5733  82.4860 15.27601531 80871
STARLINK-32749          
1 62508U 25003X   26161.58335648 -.00024298  00000+0 -87643-3 0  9996
2 62508  43.0010 124.1842 0001283 269.0039 335.2921 15.27576858  5910
STARLINK-32744          
1 62509U 25003Y   26161.18264162  .00020372  00000+0  74748-3 0  9994
2 62509  43.0011 126.9251 0000175 224.9971 135.0866 15.27592570 80691
STARLINK-32701          
1 62510U 25003Z   26161.61850124  .00017786  00000+0  65408-3 0  9991
2 62510  42.9985 124.1724 0001812 266.2831  93.7813 15.27589725 80767
STARLINK-11452 [DTC]    
1 62511U 25004A   26161.58335648 -.00051144  00000+0 -39749-3 0  9995
2 62511  43.0005 230.7724 0001426 284.3685 254.8342 15.70842454  6041
STARLINK-11443 [DTC]    
1 62512U 25004B   26160.24832766  .00158628  00000+0  12143-2 0  9992
2 62512  43.0002 239.2686 0002187 299.4872  60.5777 15.70878039 81607
STARLINK-11440 [DTC]    
1 62513U 25004C   26160.93181813  .00165690  00000+0  12666-2 0  9996
2 62513  43.0014 234.9218 0001753 293.4959  66.5724 15.70888859 81713
STARLINK-11514 [DTC]    
1 62514U 25004D   26161.48373666  .00145704  00000+0  11173-2 0  9993
2 62514  42.9990 231.3053 0001152 245.3626 114.7122 15.70881171 81801
STARLINK-11508 [DTC]    
1 62515U 25004E   26160.90527332  .00180959  00000+0  13789-2 0  9997
2 62515  43.0005 234.7068 0001367 284.4345  75.6371 15.70915073 81714
STARLINK-11510 [DTC]    
1 62516U 25004F   26160.49204266  .00250484  00000+0  18972-2 0  9990
2 62516  43.0005 237.6443 0001479 255.5410 104.5294 15.70841428 81640
STARLINK-11512 [DTC]    
1 62517U 25004G   26161.46159060  .00206708  00000+0  15619-2 0  9995
2 62517  43.0000 231.1266 0003552 305.0762  54.9772 15.71031120 81801
STARLINK-11450 [DTC]    
1 62518U 25004H   26161.49344079  .00078984  00000+0  61229-3 0  9997
2 62518  42.9996 231.3822 0001055 224.9671 135.1112 15.70875969 81804
STARLINK-11507 [DTC]    
1 62519U 25004J   26161.49875190  .00211671  00000+0  16106-2 0  9996
2 62519  42.9996 231.4240 0000726 262.0897  97.9888 15.70851544 81805
STARLINK-11482 [DTC]    
1 62520U 25004K   26161.46688803  .00155079  00000+0  11927-2 0  9993
2 62520  43.0016 231.1710 0001833 258.9258 101.1403 15.70778073 81802
